NORAD_CAT_ID,OBJECT_NAME,OBJECT_TYPE,EPOCH,MEAN_MOTION,ECCENTRICITY,INCLINATION,RA_OF_ASC_NODE,ARG_OF_PERICENTER,MEAN_ANOMALY,BSTAR,MEAN_MOTION_DOT,MEAN_MOTION_DDOT,TLE_LINE0,TLE_LINE1,TLE_LINE2,SEMIMAJOR_AXIS,PERIOD,APOGEE,PERIGEE,DECAYED
51897.0,STARLINK-3598,PAYLOAD,2022-05-07 22:00:00,15.68098891,0.000114,53.2174,180.9839,54.9454,6.9694,-0.0068704,-0.00715325,0.0,0 STARLINK-3598,1 51897U 22022AX  22127.91667824 -.00715325  00000-0 -68704-2 0  9997,2 51897  53.2174 180.9839 0001140  54.9454   6.9694 15.68098891  3708,6742.478,91.831,365.112,363.574,0.0
51897.0,STARLINK-3598,PAYLOAD,2022-05-08 06:00:00,15.67589432,0.0001452,53.2175,179.3498,48.3012,96.1004,-0.0070226,-0.00716024,0.0,0 STARLINK-3598,1 51897U 22022AX  22128.25001157 -.00716024  00000-0 -70226-2 0  9995,2 51897  53.2175 179.3498 0001452  48.3012  96.1004 15.67589432 11547,6743.939,91.861,366.783,364.825,0.0
51897.0,STARLINK-3598,PAYLOAD,2022-05-08 14:00:01,15.67075928,0.0001303,53.2175,177.7184,61.5525,164.7237,-0.0071048999999999,-0.00709852,0.0,0 STARLINK-3598,1 51897U 22022AX  22128.58334491 -.00709852  00000-0 -71049-2 0  9996,2 51897  53.2175 177.7184 0001303  61.5525 164.7237 15.67075928  3701,6745.4119999999975,91.891,368.156,366.398,0.0
51897.0,STARLINK-3598,PAYLOAD,2022-05-08 22:00:00,15.66569818,0.0001126,53.2177,176.0848,65.9216,241.6161,-0.0073266,-0.00716441,0.0,0 STARLINK-3598,1 51897U 22022AX  22128.91667824 -.00716441  00000-0 -73266-2 0  9997,2 51897  53.2177 176.0848 0001126  65.9216 241.6161 15.66569818  3706,6746.865,91.921,369.489,367.97,0.0
51897.0,STARLINK-3598,PAYLOAD,2022-05-09 06:00:00,15.66061843,0.0001262999999999,53.2178,174.4548,48.2161,339.9693,-0.0075156999999999,-0.00719682,0.0,0 STARLINK-3598,1 51897U 22022AX  22129.25001157 -.00719682  00000-0 -75157-2 0  9997,2 51897  53.2178 174.4548 0001263  48.2161 339.9693 15.66061843 11706,6748.324000000001,91.95,371.041,369.336,0.0
51897.0,STARLINK-3598,PAYLOAD,2022-05-09 14:00:01,15.65546211,0.0001211,53.2173,172.8268,58.8476,49.4401,-0.0075605,-0.00709893,0.0,0 STARLINK-3598,1 51897U 22022AX  22129.58335648 -.00709893  00000-0 -75605-2 0  9999,2 51897  53.2173 172.8268 0001211  58.8476  49.4401 15.65546211  3719,6749.805,91.981,372.48800000000006,370.853,0.0
51897.0,STARLINK-3598,PAYLOAD,2022-05-09 22:00:00,15.65038478,0.0001348,53.2174,171.1967,53.9337,133.7124,-0.0077566,-0.00713313,0.0,0 STARLINK-3598,1 51897U 22022AX  22129.91667824 -.00713313  00000-0 -77566-2 0  9990,2 51897  53.2174 171.1967 0001348  53.9337 133.7124 15.65038478  3700,6751.265,92.011,374.04,372.22,0.0
51897.0,STARLINK-3598,PAYLOAD,2022-05-10 08:00:01,15.64403337,0.000127,53.2174,169.1648,49.9864,326.0754,-0.0080073,-0.00717496,0.0,0 STARLINK-3598,1 51897U 22022AX  22130.33334491 -.00717496  00000-0 -80073-2 0  9992,2 51897  53.2174 169.1648 0001270  49.9864 326.0754 15.64403337 11879,6753.092,92.048,375.815,374.1,0.0
51897.0,STARLINK-3598,PAYLOAD,2022-05-10 14:00:01,15.64018744,0.0001078,53.2173,167.9466,68.4777,276.1748,-0.0080776,-0.00713131,0.0,0 STARLINK-3598,1 51897U 22022AX  22130.58334491 -.00713131  00000-0 -80776-2 0  9991,2 51897  53.2173 167.9466 0001078  68.4777 276.1748 15.64018744  3702,6754.199000000001,92.071,376.792,375.336,0.0
51897.0,STARLINK-3598,PAYLOAD,2022-05-10 18:00:00,15.63760523,0.0001389,53.2167,167.1323,54.445,149.0795,-0.0081163,-0.00709607,0.0,0 STARLINK-3598,1 51897U 22022AX  22130.75001157 -.00709607  00000-0 -81163-2 0  9994,2 51897  53.2167 167.1323 0001389  54.4450 149.0795 15.63760523  3682,6754.943,92.086,377.746,375.87,0.0
51897.0,STARLINK-3598,PAYLOAD,2022-05-11 22:00:00,15.61978362,0.0001250999999999,53.2176,161.4544,56.26300000000001,235.0539,-0.0087446,-0.00712408,0.0,0 STARLINK-3598,1 51897U 22022AX  22131.91667824 -.00712408  00000-0 -87446-2 0  9995,2 51897  53.2176 161.4544 0001251  56.2630 235.0539 15.61978362 12123,6760.08,92.191,382.791,381.099,0.0
51897.0,STARLINK-3598,PAYLOAD,2022-05-12 14:00:01,15.60959901,0.0001336,53.2171,158.2188,47.0464,33.9232,-0.0091234,-0.00714213,0.0,0 STARLINK-3598,1 51897U 22022AX  22132.58334491 -.00714213  00000-0 -91234-2 0  9996,2 51897  53.2171 158.2188 0001336  47.0464  33.9232 15.60959901  1303,6763.02,92.251,385.789,383.982,0.0
51897.0,STARLINK-3598,PAYLOAD,2022-05-12 20:00:01,15.60576846,0.0001240999999999,53.2175,157.0045,48.4172,358.0423,-0.0092552,-0.00713871,0.0,0 STARLINK-3598,1 51897U 22022AX  22132.83334491 -.00713871  00000-0 -92552-2 0  9997,2 51897  53.2175 157.0045 0001241  48.4172 358.0423 15.60576846 12265,6764.127,92.274,386.831,385.152,0.0
51897.0,STARLINK-3598,PAYLOAD,2022-05-12 22:00:00,15.60448777,0.0001394,53.2173,156.6,50.2515,104.6279,-0.0092833,-0.00712644,0.0,0 STARLINK-3598,1 51897U 22022AX  22132.91667824 -.00712644  00000-0 -92833-2 0  9994,2 51897  53.2173 156.6000 0001394  50.2515 104.6279 15.60448777  1308,6764.496999999999,92.281,387.305,385.419,0.0
51897.0,STARLINK-3598,PAYLOAD,2022-05-13 14:00:01,15.59430805,0.0001171,53.2174,153.3717,66.3139,234.5412,-0.0096877,-0.00714878,0.0,0 STARLINK-3598,1 51897U 22022AX  22133.58334491 -.00714878  00000-0 -96877-2 0  9992,2 51897  53.2174 153.3717 0001171  66.3139 234.5412 15.59430805  1304,6767.44,92.341,390.098,388.513,0.0
51897.0,STARLINK-3598,PAYLOAD,2022-05-13 22:00:00,15.58918468,0.0001066,53.2175,151.7566,68.8039,304.1234,-0.0098406,-0.00712285,0.0,0 STARLINK-3598,1 51897U 22022AX  22133.91667824 -.00712285  00000-0 -98406-2 0  9998,2 51897  53.2175 151.7566 0001066  68.8039 304.1234 15.58918468 12435,6768.9230000000025,92.372,391.51,390.066,0.0
51897.0,STARLINK-3598,PAYLOAD,2022-05-14 14:00:01,15.57900795,0.0001319,53.2173,148.5356,59.4472,95.7792,-0.010277,-0.00715418,0.0,0 STARLINK-3598,1 51897U 22022AX  22134.58334491 -.00715418  00000-0 -10277-1 0  9993,2 51897  53.2173 148.5356 0001319  59.4472  95.7792 15.57900795  1301,6771.87,92.432,394.629,392.842,0.0
51897.0,STARLINK-3598,PAYLOAD,2022-05-14 22:00:00,15.57389615,0.000145,53.2173,146.9242,52.6615,172.7977,-0.010442,-0.00713226,0.0,0 STARLINK-3598,1 51897U 22022AX  22134.91667824 -.00713226  00000-0 -10442-1 0  9998,2 51897  53.2173 146.9242 0001450  52.6615 172.7977 15.57389615 12593,6773.352,92.462,396.199,394.235,0.0
51897.0,STARLINK-3598,PAYLOAD,2022-05-15 14:00:01,15.56370985,0.0001169,53.2172,143.7108,56.5835,307.5631,-0.010872,-0.00714552,0.0,0 STARLINK-3598,1 51897U 22022AX  22135.58335648 -.00714552  00000-0 -10872-1 0  9998,2 51897  53.2172 143.7108 0001169  56.5835 307.5631 15.56370985  1303,6776.307,92.523,398.964,397.38,0.0
51897.0,STARLINK-3598,PAYLOAD,2022-05-15 22:00:00,15.55859535,0.0001358,53.2172,142.1031,45.5404,26.9365,-0.011065,-0.00713608,0.0,0 STARLINK-3598,1 51897U 22022AX  22135.91667824 -.00713608  00000-0 -11065-1 0  9995,2 51897  53.2172 142.1031 0001358  45.5404  26.9365 15.55859535 12749,6777.792,92.553,400.578,398.737,0.0
51897.0,STARLINK-3598,PAYLOAD,2022-05-16 14:00:01,15.54841525,0.0001328,53.2171,138.8969,66.7102,140.7125,-0.011535,-0.00716108,0.0,0 STARLINK-3598,1 51897U 22022AX  22136.58334491 -.00716108  00000-0 -11535-1 0  9990,2 51897  53.2171 138.8969 0001328  66.7102 140.7125 15.54841525  1305,6780.75,92.614,403.516,401.715,0.0
51897.0,STARLINK-3598,PAYLOAD,2022-05-16 22:00:00,15.54329003,0.0001355,53.2173,137.2928,56.7954,217.1839,-0.011678,-0.00711804,0.0,0 STARLINK-3598,1 51897U 22022AX  22136.91667824 -.00711804  00000-0 -11678-1 0  9992,2 51897  53.2173 137.2928 0001355  56.7954 217.1839 15.54329003 12900,6782.241,92.644,405.025,403.187,0.0
51897.0,STARLINK-3598,PAYLOAD,2022-05-17 14:00:01,15.533106,0.0001254,53.2172,134.0939,51.6317,353.6814,-0.012152,-0.00713379,0.0,0 STARLINK-3598,1 51897U 22022AX  22137.58335648 -.00713379  00000-0 -12152-1 0  9999,2 51897  53.2172 134.0939 0001254  51.6317 353.6814 15.53310600  1304,6785.205,92.705,407.921,406.219,0.0
51897.0,STARLINK-3598,PAYLOAD,2022-05-17 20:00:01,15.52925731,0.0001225,53.2174,132.8936,50.8021,313.0429,-0.012261,-0.00710042,0.0,0 STARLINK-3598,1 51897U 22022AX  22137.83334491 -.00710042  00000-0 -12261-1 0  9997,2 51897  53.2174 132.8936 0001225  50.8021 313.0429 15.52925731 13042,6786.326,92.728,409.022,407.36,0.0
51897.0,STARLINK-3598,PAYLOAD,2022-05-17 22:00:01,15.52800258,0.0001395999999999,53.2174,132.4939,49.48,60.5507,-0.012386,-0.00713709,0.0,0 STARLINK-3598,1 51897U 22022AX  22137.91668981 -.00713709  00000-0 -12386-1 0  9991,2 51897  53.2174 132.4939 0001396  49.4800  60.5507 15.52800258  1302,6786.691999999999,92.736,409.504,407.609,0.0
51897.0,STARLINK-3598,PAYLOAD,2022-05-18 14:00:01,15.51781622,0.0001343,53.2171,129.3021,65.1422,172.4166,-0.012889,-0.00724768,0.0,0 STARLINK-3598,1 51897U 22022AX  22138.58334491 -.00724768  00000-0 -12889-1 0  9996,2 51897  53.2171 129.3021 0001343  65.1422 172.4166 15.51781622  1309,6789.661,92.797,412.43800000000016,410.614,0.0
51897.0,STARLINK-3598,PAYLOAD,2022-05-18 20:00:01,15.51396873,0.0001429,53.2171,128.1046,56.6356,138.1405,-0.012979,-0.00720158,0.0,0 STARLINK-3598,1 51897U 22022AX  22138.83334491 -.00720158  00000-0 -12979-1 0  9993,2 51897  53.2171 128.1046 0001429  56.6356 138.1405 15.51396873 13206,6790.784000000002,92.82,413.619,411.67800000000005,0.0
51897.0,STARLINK-3598,PAYLOAD,2022-05-18 22:00:00,15.51268875,0.0001301,53.2174,127.7058,61.2096,239.2289,-0.01303,-0.00719683,0.0,0 STARLINK-3598,1 51897U 22022AX  22138.91667824 -.00719683  00000-0 -13030-1 0  9991,2 51897  53.2174 127.7058 0001301  61.2096 239.2289 15.51268875  1300,6791.156999999997,92.827,413.906,412.139,0.0
51897.0,STARLINK-3598,PAYLOAD,2022-05-19 14:00:01,15.50121404,0.0001166,53.2172,124.5201,60.4928,3.9495,-0.0060909,-0.00334575,0.0,0 STARLINK-3598,1 51897U 22022AX  22139.58335648 -.00334575  00000-0 -60909-2 0  9992,2 51897  53.2172 124.5201 0001166  60.4928   3.9495 15.50121404  1307,6794.5080000000025,92.896,417.166,415.581,0.0
